[Satellite]
VERSION=1.1
NAME=COLUMBIA
NICKNAME=COLUMBIA
TLE1=1 42702U 98067LK  18021.15226279  .00156700  00000-0  67467-3 0  9993
TLE2=2 42702  51.6307  11.4321 0006724  65.4717 294.6987 15.83995737 39026
